[
    {
        "Altitude(m)": 610405.3500835202,
        "Argument of Periapsis(deg)": 0.0,
        "Eccentricity": 0.0,
        "Inclination(deg)": 60.0,
        "Latitude(deg)": 52.11134620486369,
        "Longitude(deg)": 97.47742918431527,
        "Mean Anomaly(deg)": 114.54549999999999,
        "RAAN(deg)": 65.0,
        "Satellite Name": "Test1 293",
        "Satellite Number": 293,
        "Semi-Major Axis(m)": 6980739.136638005,
        "Time(s)": 0
    },
    {
        "Altitude(m)": 610321.9231012901,
        "Argument of Periapsis(deg)": 0.00010418945913296404,
        "Eccentricity": 0.0,
        "Inclination(deg)": 60.0,
        "Latitude(deg)": 51.74606106194424,
        "Longitude(deg)": 98.24632412764491,
        "Mean Anomaly(deg)": 115.16560614546182,
        "RAAN(deg)": 64.99957995086025,
        "Satellite Name": "Test1 293",
        "Satellite Number": 293,
        "Semi-Major Axis(m)": 6980739.136638005,
        "Time(s)": 10
    },
    {
        "Altitude(m)": 610237.1319593044,
        "Argument of Periapsis(deg)": 0.0002083789182659281,
        "Eccentricity": 0.0,
        "Inclination(deg)": 60.0,
        "Latitude(deg)": 51.37525683248074,
        "Longitude(deg)": 99.00216646998803,
        "Mean Anomaly(deg)": 115.78571229092368,
        "RAAN(deg)": 64.99915990172052,
        "Satellite Name": "Test1 293",
        "Satellite Number": 293,
        "Semi-Major Axis(m)": 6980739.136638005,
        "Time(s)": 20
    },
    {
        "Altitude(m)": 610151.0268383333,
        "Argument of Periapsis(deg)": 0.00031256837739889213,
        "Eccentricity": 0.0,
        "Inclination(deg)": 60.0,
        "Latitude(deg)": 50.99909210176701,
        "Longitude(deg)": 99.7451493413229,
        "Mean Anomaly(deg)": 116.40581843638553,
        "RAAN(deg)": 64.99873985258077,
        "Satellite Name": "Test1 293",
        "Satellite Number": 293,
        "Semi-Major Axis(m)": 6980739.136638005,
        "Time(s)": 30
    },
    {
        "Altitude(m)": 610063.6587816607,
        "Argument of Periapsis(deg)": 0.0004167578365318562,
        "Eccentricity": 0.0,
        "Inclination(deg)": 60.0,
        "Latitude(deg)": 50.61772170113399,
        "Longitude(deg)": 100.47547357347747,
        "Mean Anomaly(deg)": 117.02592458184733,
        "RAAN(deg)": 64.99831980344103,
        "Satellite Name": "Test1 293",
        "Satellite Number": 293,
        "Semi-Major Axis(m)": 6980739.136638005,
        "Time(s)": 40
    },
    {
        "Altitude(m)": 609975.0796704643,
        "Argument of Periapsis(deg)": 0.0005209472956648203,
        "Eccentricity": 0.0,
        "Inclination(deg)": 60.0,
        "Latitude(deg)": 50.2312966828177,
        "Longitude(deg)": 101.19334564147204,
        "Mean Anomaly(deg)": 117.64603072730914,
        "RAAN(deg)": 64.9978997543013,
        "Satellite Name": "Test1 293",
        "Satellite Number": 293,
        "Semi-Major Axis(m)": 6980739.136638005,
        "Time(s)": 50
    },
    {
        "Altitude(m)": 609885.3421987437,
        "Argument of Periapsis(deg)": 0.0006251367547977843,
        "Eccentricity": 0.0,
        "Inclination(deg)": 60.0,
        "Latitude(deg)": 49.83996430948899,
        "Longitude(deg)": 101.8989771885211,
        "Mean Anomaly(deg)": 118.26613687277099,
        "RAAN(deg)": 64.99747970516155,
        "Satellite Name": "Test1 293",
        "Satellite Number": 293,
        "Semi-Major Axis(m)": 6980739.136638005,
        "Time(s)": 60
    },
    {
        "Altitude(m)": 609794.499847849,
        "Argument of Periapsis(deg)": 0.0007293262139307483,
        "Eccentricity": 0.0,
        "Inclination(deg)": 60.0,
        "Latitude(deg)": 49.44386805701402,
        "Longitude(deg)": 102.59258462029462,
        "Mean Anomaly(deg)": 118.88624301823283,
        "RAAN(deg)": 64.99705965602182,
        "Satellite Name": "Test1 293",
        "Satellite Number": 293,
        "Semi-Major Axis(m)": 6980739.136638005,
        "Time(s)": 70
    },
    {
        "Altitude(m)": 609702.6068605683,
        "Argument of Periapsis(deg)": 0.0008335156730637124,
        "Eccentricity": 0.0,
        "Inclination(deg)": 60.0,
        "Latitude(deg)": 49.043147629089376,
        "Longitude(deg)": 103.27438725362465,
        "Mean Anomaly(deg)": 119.50634916369464,
        "RAAN(deg)": 64.99663960688207,
        "Satellite Name": "Test1 293",
        "Satellite Number": 293,
        "Semi-Major Axis(m)": 6980739.136638005,
        "Time(s)": 80
    },
    {
        "Altitude(m)": 609609.7182148587,
        "Argument of Periapsis(deg)": 0.0009377051321966765,
        "Eccentricity": 0.0,
        "Inclination(deg)": 60.0,
        "Latitude(deg)": 48.63793898246946,
        "Longitude(deg)": 103.94460704314237,
        "Mean Anomaly(deg)": 120.12645530915644,
        "RAAN(deg)": 64.99621955774234,
        "Satellite Name": "Test1 293",
        "Satellite Number": 293,
        "Semi-Major Axis(m)": 6980739.136638005,
        "Time(s)": 90
    },
    {
        "Altitude(m)": 609515.8895971493,
        "Argument of Periapsis(deg)": 0.0010418945913296407,
        "Eccentricity": 0.0,
        "Inclination(deg)": 60.0,
        "Latitude(deg)": 48.22837436158424,
        "Longitude(deg)": 104.60346837044295,
        "Mean Anomaly(deg)": 120.7465614546183,
        "RAAN(deg)": 64.99579950860257,
        "Satellite Name": "Test1 293",
        "Satellite Number": 293,
        "Semi-Major Axis(m)": 6980739.136638005,
        "Time(s)": 100
    },
    {
        "Altitude(m)": 609421.1773752971,
        "Argument of Periapsis(deg)": 0.0011460840504626045,
        "Eccentricity": 0.0,
        "Inclination(deg)": 60.0,
        "Latitude(deg)": 47.814582341424135,
        "Longitude(deg)": 105.25119638018168,
        "Mean Anomaly(deg)": 121.36666760008015,
        "RAAN(deg)": 64.99537945946282,
        "Satellite Name": "Test1 293",
        "Satellite Number": 293,
        "Semi-Major Axis(m)": 6980739.136638005,
        "Time(s)": 110
    },
    {
        "Altitude(m)": 609325.6385711444,
        "Argument of Periapsis(deg)": 0.0012502735095955685,
        "Eccentricity": 0.0,
        "Inclination(deg)": 60.0,
        "Latitude(deg)": 47.396687877645796,
        "Longitude(deg)": 105.88801688600283,
        "Mean Anomaly(deg)": 121.986773745542,
        "RAAN(deg)": 64.99495941032309,
        "Satellite Name": "Test1 293",
        "Satellite Number": 293,
        "Semi-Major Axis(m)": 6980739.136638005,
        "Time(s)": 120
    },
    {
        "Altitude(m)": 609229.3308327679,
        "Argument of Periapsis(deg)": 0.0013544629687285324,
        "Eccentricity": 0.0,
        "Inclination(deg)": 60.0,
        "Latitude(deg)": 46.974812362932326,
        "Longitude(deg)": 106.51415633048256,
        "Mean Anomaly(deg)": 122.6068798910038,
        "RAAN(deg)": 64.99453936118334,
        "Satellite Name": "Test1 293",
        "Satellite Number": 293,
        "Semi-Major Axis(m)": 6980739.136638005,
        "Time(s)": 130
    },
    {
        "Altitude(m)": 609132.3124063554,
        "Argument of Periapsis(deg)": 0.0014586524278614966,
        "Eccentricity": 0.0,
        "Inclination(deg)": 60.0,
        "Latitude(deg)": 46.54907368871578,
        "Longitude(deg)": 107.12984028323196,
        "Mean Anomaly(deg)": 123.2269860364656,
        "RAAN(deg)": 64.99411931204361,
        "Satellite Name": "Test1 293",
        "Satellite Number": 293,
        "Semi-Major Axis(m)": 6980739.136638005,
        "Time(s)": 140
    },
    {
        "Altitude(m)": 609034.6421077581,
        "Argument of Periapsis(deg)": 0.0015628418869944607,
        "Eccentricity": 0.0,
        "Inclination(deg)": 60.0,
        "Latitude(deg)": 46.11958631144248,
        "Longitude(deg)": 107.73529349992218,
        "Mean Anomaly(deg)": 123.84709218192745,
        "RAAN(deg)": 64.99369926290386,
        "Satellite Name": "Test1 293",
        "Satellite Number": 293,
        "Semi-Major Axis(m)": 6980739.136638005,
        "Time(s)": 150
    },
    {
        "Altitude(m)": 608936.3792937316,
        "Argument of Periapsis(deg)": 0.0016670313461274247,
        "Eccentricity": 0.0,
        "Inclination(deg)": 60.0,
        "Latitude(deg)": 45.68646132263236,
        "Longitude(deg)": 108.33074002639604,
        "Mean Anomaly(deg)": 124.46719832738931,
        "RAAN(deg)": 64.99327921376413,
        "Satellite Name": "Test1 293",
        "Satellite Number": 293,
        "Semi-Major Axis(m)": 6980739.136638005,
        "Time(s)": 160
    },
    {
        "Altitude(m)": 608837.5838328905,
        "Argument of Periapsis(deg)": 0.0017712208052603888,
        "Eccentricity": 0.0,
        "Inclination(deg)": 60.0,
        "Latitude(deg)": 45.24980652204993,
        "Longitude(deg)": 108.91640183207814,
        "Mean Anomaly(deg)": 125.08730447285112,
        "RAAN(deg)": 64.99285916462438,
        "Satellite Name": "Test1 293",
        "Satellite Number": 293,
        "Semi-Major Axis(m)": 6980739.136638005,
        "Time(s)": 170
    },
    {
        "Altitude(m)": 608738.3160763253,
        "Argument of Periapsis(deg)": 0.001875410264393353,
        "Eccentricity": 0.0,
        "Inclination(deg)": 60.0,
        "Latitude(deg)": 44.809726493367265,
        "Longitude(deg)": 109.49249899559437,
        "Mean Anomaly(deg)": 125.70741061831292,
        "RAAN(deg)": 64.99243911548463,
        "Satellite Name": "Test1 293",
        "Satellite Number": 293,
        "Semi-Major Axis(m)": 6980739.136638005,
        "Time(s)": 180
    },
    {
        "Altitude(m)": 608638.6368280103,
        "Argument of Periapsis(deg)": 0.0019795997235263173,
        "Eccentricity": 0.0,
        "Inclination(deg)": 60.0,
        "Latitude(deg)": 44.36632268175931,
        "Longitude(deg)": 110.05924992697354,
        "Mean Anomaly(deg)": 126.32751676377477,
        "RAAN(deg)": 64.9920190663449,
        "Satellite Name": "Test1 293",
        "Satellite Number": 293,
        "Semi-Major Axis(m)": 6980739.136638005,
        "Time(s)": 190
    }
]